{
  "type": "FeatureCollection",
  "features": [
    {
      "type": "Feature",
      "properties": {
        "norad_id": 41948,
        "name": "CARTOSAT-2D",
        "group": "resource",
        "lat": -7.773140258508788,
        "lon": -130.17481241807977,
        "alt_km": 509.4495970106218,
        "timestamp": "2025-12-19T10:50:00.849216+00:00",
        "meta_object_name": "CARTOSAT-2D",
        "meta_object_id": "2017-008A",
        "meta_epoch": "2025-12-18T22:56:44.245824",
        "meta_mean_motion": 15.1931957,
        "meta_eccentricity": 0.00051854,
        "meta_inclination": 97.4391,
        "meta_ra_of_asc_node": 50.3593,
        "meta_arg_of_pericenter": 143.2834,
        "meta_mean_anomaly": 216.8757,
        "meta_ephemeris_type": 0,
        "meta_classification_type": "U",
        "meta_norad_cat_id": 41948,
        "meta_element_set_no": 999,
        "meta_rev_at_epoch": 49021,
        "meta_bstar": 0.00020878676,
        "meta_mean_motion_dot": 4.342e-05,
        "meta_mean_motion_ddot": 0,
        "tle_line1": "1 41948U 17008A   25352.95606766  .00004342  00000+0  20879-3 0  9995",
        "tle_line2": "2 41948  97.4391  50.3593 0005185 143.2834 216.8757 15.19319570490213"
      },
      "geometry": {
        "type": "Point",
        "coordinates": [
          -130.17481241807977,
          -7.773140258508788
        ]
      }
    },
    {
      "type": "Feature",
      "properties": {
        "norad_id": 42063,
        "name": "SENTINEL-2B",
        "group": "resource",
        "lat": 4.039622760966258,
        "lon": -113.58650042791513,
        "alt_km": 791.2536346273073,
        "timestamp": "2025-12-19T10:50:00.849226+00:00",
        "meta_object_name": "SENTINEL-2B",
        "meta_object_id": "2017-013A",
        "meta_epoch": "2025-12-18T23:56:40.973280",
        "meta_mean_motion": 14.30813508,
        "meta_eccentricity": 0.0001176,
        "meta_inclination": 98.571,
        "meta_ra_of_asc_node": 65.356,
        "meta_arg_of_pericenter": 97.3865,
        "meta_mean_anomaly": 262.7452,
        "meta_ephemeris_type": 0,
        "meta_classification_type": "U",
        "meta_norad_cat_id": 42063,
        "meta_element_set_no": 999,
        "meta_rev_at_epoch": 45887,
        "meta_bstar": 6.1408e-05,
        "meta_mean_motion_dot": 1.17e-06,
        "meta_mean_motion_ddot": 0,
        "tle_line1": "1 42063U 17013A   25352.99769645  .00000117  00000+0  61408-4 0  9990",
        "tle_line2": "2 42063  98.5710  65.3560 0001176  97.3865 262.7452 14.30813508458878"
      },
      "geometry": {
        "type": "Point",
        "coordinates": [
          -113.58650042791513,
          4.039622760966258
        ]
      }
    },
    {
      "type": "Feature",
      "properties": {
        "norad_id": 42767,
        "name": "CARTOSAT-2E",
        "group": "resource",
        "lat": 79.7666148769526,
        "lon": -82.54736584974872,
        "alt_km": 501.237361092858,
        "timestamp": "2025-12-19T10:50:00.849236+00:00",
        "meta_object_name": "CARTOSAT-2E",
        "meta_object_id": "2017-036C",
        "meta_epoch": "2025-12-18T23:20:34.448352",
        "meta_mean_motion": 15.19257487,
        "meta_eccentricity": 0.0002382,
        "meta_inclination": 97.4556,
        "meta_ra_of_asc_node": 50.4784,
        "meta_arg_of_pericenter": 207.6052,
        "meta_mean_anomaly": 152.5057,
        "meta_ephemeris_type": 0,
        "meta_classification_type": "U",
        "meta_norad_cat_id": 42767,
        "meta_element_set_no": 999,
        "meta_rev_at_epoch": 47078,
        "meta_bstar": 0.00018813365,
        "meta_mean_motion_dot": 3.898e-05,
        "meta_mean_motion_ddot": 0,
        "tle_line1": "1 42767U 17036C   25352.97262093  .00003898  00000+0  18813-3 0  9999",
        "tle_line2": "2 42767  97.4556  50.4784 0002382 207.6052 152.5057 15.19257487470789"
      },
      "geometry": {
        "type": "Point",
        "coordinates": [
          -82.54736584974872,
          79.7666148769526
        ]
      }
    },
    {
      "type": "Feature",
      "properties": {
        "norad_id": 42920,
        "name": "FORMOSAT-5",
        "group": "resource",
        "lat": -56.9226299999824,
        "lon": 80.4984412225896,
        "alt_km": 723.7945650985239,
        "timestamp": "2025-12-19T10:50:00.849246+00:00",
        "meta_object_name": "FORMOSAT-5",
        "meta_object_id": "2017-049A",
        "meta_epoch": "2025-12-18T21:51:26.366112",
        "meta_mean_motion": 14.50764159,
        "meta_eccentricity": 0.00098476,
        "meta_inclination": 98.2447,
        "meta_ra_of_asc_node": 67.1063,
        "meta_arg_of_pericenter": 280.6246,
        "meta_mean_anomaly": 79.384,
        "meta_ephemeris_type": 0,
        "meta_classification_type": "U",
        "meta_norad_cat_id": 42920,
        "meta_element_set_no": 999,
        "meta_rev_at_epoch": 44053,
        "meta_bstar": 5.5228878e-05,
        "meta_mean_motion_dot": 1.74e-06,
        "meta_mean_motion_ddot": 0,
        "tle_line1": "1 42920U 17049A   25352.91072183  .00000174  00000+0  55229-4 0  9994",
        "tle_line2": "2 42920  98.2447  67.1063 0009847 280.6246  79.3840 14.50764159440531"
      },
      "geometry": {
        "type": "Point",
        "coordinates": [
          80.4984412225896,
          -56.9226299999824
        ]
      }
    },
    {
      "type": "Feature",
      "properties": {
        "norad_id": 42969,
        "name": "SENTINEL-5P",
        "group": "resource",
        "lat": -58.099415457243666,
        "lon": -53.649046916887784,
        "alt_km": 834.6607352882256,
        "timestamp": "2025-12-19T10:50:00.849257+00:00",
        "meta_object_name": "SENTINEL-5P",
        "meta_object_id": "2017-064A",
        "meta_epoch": "2025-12-18T19:53:13.522272",
        "meta_mean_motion": 14.19519004,
        "meta_eccentricity": 0.00010133,
        "meta_inclination": 98.7792,
        "meta_ra_of_asc_node": 291.3589,
        "meta_arg_of_pericenter": 90.03,
        "meta_mean_anomaly": 270.0992,
        "meta_ephemeris_type": 0,
        "meta_classification_type": "U",
        "meta_norad_cat_id": 42969,
        "meta_element_set_no": 999,
        "meta_rev_at_epoch": 42397,
        "meta_bstar": 4.0106086e-05,
        "meta_mean_motion_dot": 4e-07,
        "meta_mean_motion_ddot": 0,
        "tle_line1": "1 42969U 17064A   25352.82862873  .00000040  00000+0  40106-4 0  9997",
        "tle_line2": "2 42969  98.7792 291.3589 0001013  90.0300 270.0992 14.19519004423976"
      },
      "geometry": {
        "type": "Point",
        "coordinates": [
          -53.649046916887784,
          -58.099415457243666
        ]
      }
    },
    {
      "type": "Feature",
      "properties": {
        "norad_id": 42987,
        "name": "SKYSAT-C11",
        "group": "resource",
        "lat": -80.36106897607077,
        "lon": -98.95270113452747,
        "alt_km": 431.5232995989745,
        "timestamp": "2025-12-19T10:50:00.849267+00:00",
        "meta_object_name": "SKYSAT-C11",
        "meta_object_id": "2017-068A",
        "meta_epoch": "2025-12-18T22:50:06.811872",
        "meta_mean_motion": 15.47702114,
        "meta_eccentricity": 0.00011532,
        "meta_inclination": 97.4142,
        "meta_ra_of_asc_node": 130.598,
        "meta_arg_of_pericenter": 99.6739,
        "meta_mean_anomaly": 260.4642,
        "meta_ephemeris_type": 0,
        "meta_classification_type": "U",
        "meta_norad_cat_id": 42987,
        "meta_element_set_no": 999,
        "meta_rev_at_epoch": 45527,
        "meta_bstar": 0.00036065159,
        "meta_mean_motion_dot": 0.00018579,
        "meta_mean_motion_ddot": 0,
        "tle_line1": "1 42987U 17068A   25352.95146773  .00018579  00000+0  36065-3 0  9993",
        "tle_line2": "2 42987  97.4142 130.5980 0001153  99.6739 260.4642 15.47702114455277"
      },
      "geometry": {
        "type": "Point",
        "coordinates": [
          -98.95270113452747,
          -80.36106897607077
        ]
      }
    },
    {
      "type": "Feature",
      "properties": {
        "norad_id": 42988,
        "name": "SKYSAT-C10",
        "group": "resource",
        "lat": -28.452125899417567,
        "lon": 128.37395060329285,
        "alt_km": 476.66230272172743,
        "timestamp": "2025-12-19T10:50:00.849278+00:00",
        "meta_object_name": "SKYSAT-C10",
        "meta_object_id": "2017-068B",
        "meta_epoch": "2025-12-18T22:25:10.285248",
        "meta_mean_motion": 15.32190604,
        "meta_eccentricity": 0.00054557,
        "meta_inclination": 97.426,
        "meta_ra_of_asc_node": 123.8024,
        "meta_arg_of_pericenter": 86.4338,
        "meta_mean_anomaly": 273.7528,
        "meta_ephemeris_type": 0,
        "meta_classification_type": "U",
        "meta_norad_cat_id": 42988,
        "meta_element_set_no": 999,
        "meta_rev_at_epoch": 45474,
        "meta_bstar": 0.00029573083,
        "meta_mean_motion_dot": 9.118e-05,
        "meta_mean_motion_ddot": 0,
        "tle_line1": "1 42988U 17068B   25352.93414682  .00009118  00000+0  29573-3 0  9994",
        "tle_line2": "2 42988  97.4260 123.8024 0005455  86.4338 273.7528 15.32190604454741"
      },
      "geometry": {
        "type": "Point",
        "coordinates": [
          128.37395060329285,
          -28.452125899417567
        ]
      }
    }
  ]
}